{"type":"FeatureCollection","features":[{"type":"Feature","properties":{},"geometry":{"coordinates":[[[-122.30180077529525,47.66137386356752],[-122.2930742943094,47.661301431007246],[-122.293443018858,47.66183949905488],[-122.29614699888194,47.66408483854724],[-122.29577827433306,47.66438489964315],[-122.29573218376473,47.66469530585843],[-122.29588581899324,47.66519195196312],[-122.29765262412228,47.666257655781095],[-122.29839007321976,47.66631973494415],[-122.29852834492559,47.66606107127643],[-122.29900461413436,47.66590587246051],[-122.30018760539473,47.666009338389046],[-122.30118623438064,47.66608176441716],[-122.30169323063507,47.665895525856314],[-122.30273795018987,47.66514021821439],[-122.30279940428116,47.66447802170171],[-122.30289158541837,47.664043450674654],[-122.30276867723552,47.66360887603011],[-122.30255358791541,47.66305013188531],[-122.30180077529525,47.66137386356752]]],"type":"Polygon"}}]}