{"type":"FeatureCollection","features":[{"type":"Feature","properties":{"Name":"Joey","Rating":4.8},"geometry":{"coordinates":[-122.29977442888739,47.661611177389915],"type":"Point"},"id":0},{"type":"Feature","properties":{"Name":"Ba Bar","Rating":4.3},"geometry":{"coordinates":[-122.29800229831261,47.661636515998424],"type":"Point"},"id":1},{"type":"Feature","properties":{"Name":"Piatti Ristorante & Bar","Rating":4.1},"geometry":{"coordinates":[-122.29796215457937,47.66216953057747],"type":"Point"},"id":2},{"type":"Feature","properties":{"Name":"Bamboo Sushi","Rating":4.2},"geometry":{"coordinates":[-122.29845534901827,47.66206910795708],"type":"Point"},"id":3},{"type":"Feature","properties":{"Name":"Eureka!","Rating":4.2},"geometry":{"coordinates":[-122.29908331170513,47.661879849416096],"type":"Point"},"id":4},{"type":"Feature","properties":{"Name":"Chipotle","Rating":3.8},"geometry":{"coordinates":[-122.29866083311879,47.6618829690035],"type":"Point"},"id":5},{"type":"Feature","properties":{"Name":"Evergreens","Rating":4.1},"geometry":{"coordinates":[-122.29866083311879,47.662021213346264],"type":"Point"},"id":6},{"type":"Feature","properties":{"Name":"Frankie & Jo's","Rating":4.6},"geometry":{"coordinates":[-122.29866083311879,47.66209842412323],"type":"Point"},"id":7},{"type":"Feature","properties":{"Name":"Mochinut","Rating":4.1},"geometry":{"coordinates":[-122.2993377593362,47.66195944464249],"type":"Point"},"id":8},{"type":"Feature","properties":{"Name":"Hey Bagel","Rating":4.5},"geometry":{"coordinates":[-122.2991608850666,47.662007977201625],"type":"Point"},"id":9},{"type":"Feature","properties":{"Name":"Molly Moon's","Rating":4.4},"geometry":{"coordinates":[-122.29949825562545,47.661668984316265],"type":"Point"},"id":10},{"type":"Feature","properties":{"Name":"Din Tai Fung","Rating":4.6},"geometry":{"coordinates":[-122.29955284644949,47.661586625473205],"type":"Point"},"id":11},{"type":"Feature","properties":{"Name":"Mr. West Cafe Bar","Rating":4.2},"geometry":{"coordinates":[-122.2982302049046,47.662094668119465],"type":"Point"},"id":12},{"type":"Feature","properties":{"Name":"Einstein Bros. Bagels","Rating":3.9},"geometry":{"coordinates":[-122.29678988223861,47.662184876444655],"type":"Point"},"id":14},{"type":"Feature","properties":{"Name":"Q20 Public House","Rating":4.7},"geometry":{"coordinates":[-122.29681515601897,47.66240890618451],"type":"Point"},"id":15},{"type":"Feature","properties":{"Name":"Juice Press","Rating":3.2},"geometry":{"coordinates":[-122.29899734425422,47.66395032069099],"type":"Point"},"id":15},{"type":"Feature","properties":{"Name":"Shake Shack","Rating":"4.0"},"geometry":{"coordinates":[-122.29980161242311,47.663511849462765],"type":"Point"},"id":16},{"type":"Feature","properties":{"Name":"Starbucks","Rating":4.3},"geometry":{"coordinates":[-122.29974881192703,47.66268432543461],"type":"Point"},"id":17},{"type":"Feature","properties":{"Name":"Ma’ono Fried Chicken","Rating":4.3},"geometry":{"coordinates":[-122.29969492749916,47.6625614312986],"type":"Point"},"id":18},{"type":"Feature","properties":{"Name":"Rachel’s ginger beer ","Rating":4.3},"geometry":{"coordinates":[-122.29969125356088,47.66250946926132],"type":"Point"},"id":19},{"type":"Feature","properties":{"Name":"Pasta & Co","Rating":"4.0"},"geometry":{"coordinates":[-122.29968513033056,47.662412143401696],"type":"Point"},"id":20},{"type":"Feature","properties":{"Name":"Hokkaido","Rating":4.4},"geometry":{"coordinates":[-122.29890503162115,47.662414617857706],"type":"Point"},"id":21},{"type":"Feature","properties":{"Name":"Delfino's Pizza","Rating":4.3},"geometry":{"coordinates":[-122.29882298033334,47.66268267591812],"type":"Point"},"id":22},{"type":"Feature","properties":{"Name":"Veggie Grill","Rating":4.3},"geometry":{"coordinates":[-122.29849477910024,47.66288969527815],"type":"Point"},"id":23},{"type":"Feature","properties":{"Name":"Subway","Rating":3.3},"geometry":{"coordinates":[-122.29588318333987,47.66151277417899],"type":"Point"},"id":25},{"type":"Feature","properties":{"Name":"Starbucks","Rating":4.2},"geometry":{"coordinates":[-122.29883763134883,47.66442006615051],"type":"Point"},"id":25},{"type":"Feature","properties":{"Name":"M Cozy Fusion Cafe","Rating":"4.0"},"geometry":{"coordinates":[-122.30118120430686,47.66330931832519],"type":"Point"},"id":27},{"type":"Feature","properties":{"Name":"Dough Zone","Rating":4.1},"geometry":{"coordinates":[-122.30191777413236,47.66324263353323],"type":"Point"},"id":28},{"type":"Feature","properties":{"Name":"Happy Lemon","Rating":4.1},"geometry":{"coordinates":[-122.2988084837453,47.662413190530515],"type":"Point"},"id":29},{"type":"Feature","properties":{"Name":"The French Guys Bakery","Rating":"4.0"},"geometry":{"coordinates":[-122.29833939166087,47.662732533547654],"type":"Point"},"id":30},{"type":"Feature","properties":{"Name":"Elemental Pizza","Rating":"4.0"},"geometry":{"coordinates":[-122.29918887580554,47.66344268648879],"type":"Point"},"id":31},{"type":"Feature","properties":{"Name":"Fran's Chocolates","Rating":4.7},"geometry":{"coordinates":[-122.29908313734944,47.663639945536374],"type":"Point"},"id":32},{"type":"Feature","properties":{"Name":"Zoka's Coffee","Rating":4.4},"geometry":{"coordinates":[-122.29721342225565,47.66582486378471],"type":"Point"},"id":33},{"type":"Feature","properties":{"Name":"Nasai Teriyaki","Rating":3.7},"geometry":{"coordinates":[-122.30110270478332,47.665660776828844],"type":"Point"},"id":34}]}